PANDORA
1 67395U 80229J   26079.99582176  .00000000  00000-0  37770-3 0    02
2 67395  97.8018  80.0354 0006868  65.7819 214.2375 14.87866849    04
